STARLINK-32077          
1 60344U 24136R   26068.41154516  .00000122  00000+0  16244-4 0  9997
2 60344  53.1613  76.8348 0001422  76.8529 283.2631 15.30189785 89627
NUSAT-48 (HENRIETTA LE*)
1 60498U 24149AG  26068.80506098  .00012988  00000+0  45212-3 0  9999
2 60498  97.3923 150.8264 0002754 263.3026  96.7901 15.29812597 86946
